GLOBALSTAR M023         
1 25621U 99004A   25289.63314174 -.00000108  00000+0 -24515-4 0  9994
2 25621  52.0124  43.6312 0010310  38.9672 334.6049 12.62507915231071
GLOBALSTAR M040         
1 25622U 99004B   25289.51190420 -.00000069  00000+0  19306-3 0  9994
2 25622  51.9935  48.3343 0000134 353.4184  86.9221 12.62019290230579
GLOBALSTAR M036         
1 25623U 99004C   25289.70474152 -.00000016  00000+0  97154-3 0  9992
2 25623  51.9962 280.0246 0010572 284.0938 247.7302 11.86611786193400
GLOBALSTAR M038         
1 25624U 99004D   25290.16947369 -.00000065  00000+0  24411-3 0  9990
2 25624  51.9965  80.2713 0001043 331.6052 199.2943 12.32533957217417
GLOBALSTAR M022         
1 25649U 99012A   25289.33814461 -.00000052  00000+0  41948-3 0  9999
2 25649  52.0061 321.5586 0002776  56.3536 316.7501 12.02504247190956
GLOBALSTAR M041         
1 25650U 99012B   25290.08345095 -.00000123  00000+0 -48734-3 0  9997
2 25650  52.0009 204.6977 0000937 175.4300 184.6545 11.96681552192874
GLOBALSTAR M046         
1 25651U 99012C   25290.17140484  .00000087  00000+0  19403-2 0  9990
2 25651  52.0050 264.9728 0002066 126.1149 319.3062 12.09414877198420
GLOBALSTAR M037         
1 25652U 99012D   25289.41431985 -.00000073  00000+0  17169-3 0  9999
2 25652  51.9990 174.8750 0002802  87.2398  83.7281 12.62452803226581
